SKYKRAFT-1A             
1 55054U 23001AX  26068.71064616  .00008177  00000+0  30069-3 0  9991
2 55054  97.3349 127.6290 0011277 121.5092 238.7251 15.28083228176529
STARLINK-31406          
1 59017U 24036V   26068.39466612 -.00002258  00000+0 -64127-4 0  9998
2 59017  53.1595  66.3225 0001213  92.8597 267.2543 15.30195857115463
